{
  "type": "FeatureCollection",
  "features": [
    {
      "type": "Feature",
      "properties": {
        "norad_id": 66052,
        "name": "HRC MONOBLOCK CAMERA",
        "group": "stations",
        "lat": -8.025152681343302,
        "lon": 160.2241425876106,
        "alt_km": 410.5221061855773,
        "timestamp": "2025-12-07T16:44:02.707427+00:00",
        "meta_object_name": "HRC MONOBLOCK CAMERA",
        "meta_object_id": "1998-067XR",
        "meta_epoch": "2025-12-06T22:15:10.603584",
        "meta_mean_motion": 15.53573464,
        "meta_eccentricity": 0.00040212,
        "meta_inclination": 51.6285,
        "meta_ra_of_asc_node": 170.4765,
        "meta_arg_of_pericenter": 160.7333,
        "meta_mean_anomaly": 199.381,
        "meta_ephemeris_type": 0,
        "meta_classification_type": "U",
        "meta_norad_cat_id": 66052,
        "meta_element_set_no": 999,
        "meta_rev_at_epoch": 793,
        "meta_bstar": 0.00071615141,
        "meta_mean_motion_dot": 0.00046263,
        "meta_mean_motion_ddot": 0,
        "tle_line1": "1 66052U 98067XR  25340.92720606  .00046263  00000+0  71615-3 0  9998",
        "tle_line2": "2 66052  51.6285 170.4765 0004021 160.7333 199.3810 15.53573464  7931"
      },
      "geometry": {
        "type": "Point",
        "coordinates": [
          160.2241425876106,
          -8.025152681343302
        ]
      }
    },
    {
      "type": "Feature",
      "properties": {
        "norad_id": 66174,
        "name": "HTV-X1",
        "group": "stations",
        "lat": -28.26338740097273,
        "lon": 142.23277322828707,
        "alt_km": 422.72178847307896,
        "timestamp": "2025-12-07T16:44:02.707437+00:00",
        "meta_object_name": "HTV-X1",
        "meta_object_id": "2025-241A",
        "meta_epoch": "2025-12-06T20:46:13.238400",
        "meta_mean_motion": 15.49374779,
        "meta_eccentricity": 0.00034973,
        "meta_inclination": 51.6304,
        "meta_ra_of_asc_node": 171.5636,
        "meta_arg_of_pericenter": 213.1314,
        "meta_mean_anomaly": 146.9456,
        "meta_ephemeris_type": 0,
        "meta_classification_type": "U",
        "meta_norad_cat_id": 66174,
        "meta_element_set_no": 999,
        "meta_rev_at_epoch": 51,
        "meta_bstar": 0.00025393652,
        "meta_mean_motion_dot": 0.0001375,
        "meta_mean_motion_ddot": 0,
        "tle_line1": "1 66174U 25241A   25340.86543100  .00013750  00000+0  25394-3 0  9990",
        "tle_line2": "2 66174  51.6304 171.5636 0003497 213.1314 146.9456 15.49374779   519"
      },
      "geometry": {
        "type": "Point",
        "coordinates": [
          142.23277322828707,
          -28.26338740097273
        ]
      }
    },
    {
      "type": "Feature",
      "properties": {
        "norad_id": 66515,
        "name": "SZ-21 MODULE",
        "group": "stations",
        "lat": 41.42868330177252,
        "lon": 139.36096978203815,
        "alt_km": 378.0004198214292,
        "timestamp": "2025-12-07T16:44:02.707447+00:00",
        "meta_object_name": "SZ-21 MODULE",
        "meta_object_id": "2025-246C",
        "meta_epoch": "2025-12-06T21:55:46.522560",
        "meta_mean_motion": 15.62073048,
        "meta_eccentricity": 0.00061635,
        "meta_inclination": 41.4777,
        "meta_ra_of_asc_node": 51.5754,
        "meta_arg_of_pericenter": 227.7607,
        "meta_mean_anomaly": 132.271,
        "meta_ephemeris_type": 0,
        "meta_classification_type": "U",
        "meta_norad_cat_id": 66515,
        "meta_element_set_no": 999,
        "meta_rev_at_epoch": 353,
        "meta_bstar": 0.00038291804,
        "meta_mean_motion_dot": 0.00034334,
        "meta_mean_motion_ddot": 0,
        "tle_line1": "1 66515U 25246C   25340.91373290  .00034334  00000+0  38292-3 0  9993",
        "tle_line2": "2 66515  41.4777  51.5754 0006163 227.7607 132.2710 15.62073048  3532"
      },
      "geometry": {
        "type": "Point",
        "coordinates": [
          139.36096978203815,
          41.42868330177252
        ]
      }
    },
    {
      "type": "Feature",
      "properties": {
        "norad_id": 66645,
        "name": "SHENZHOU-22",
        "group": "stations",
        "lat": -36.297590325136255,
        "lon": -76.4108768970252,
        "alt_km": 395.71916136782147,
        "timestamp": "2025-12-07T16:44:02.707458+00:00",
        "meta_object_name": "SHENZHOU-22",
        "meta_object_id": "2025-272A",
        "meta_epoch": "2025-12-06T21:14:35.052288",
        "meta_mean_motion": 15.58811356,
        "meta_eccentricity": 0.00094534,
        "meta_inclination": 41.4683,
        "meta_ra_of_asc_node": 52.2413,
        "meta_arg_of_pericenter": 344.5349,
        "meta_mean_anomaly": 15.5199,
        "meta_ephemeris_type": 0,
        "meta_classification_type": "U",
        "meta_norad_cat_id": 66645,
        "meta_element_set_no": 999,
        "meta_rev_at_epoch": 26300,
        "meta_bstar": 0.00035334049,
        "meta_mean_motion_dot": 0.00027906,
        "meta_mean_motion_ddot": 0,
        "tle_line1": "1 66645U 25272A   25340.88512792  .00027906  00000+0  35334-3 0  9995",
        "tle_line2": "2 66645  41.4683  52.2413 0009453 344.5349  15.5199 15.58811356263009"
      },
      "geometry": {
        "type": "Point",
        "coordinates": [
          -76.4108768970252,
          -36.297590325136255
        ]
      }
    },
    {
      "type": "Feature",
      "properties": {
        "norad_id": 66646,
        "name": "CZ-2F R/B",
        "group": "stations",
        "lat": -15.583184022476212,
        "lon": -120.67256979410736,
        "alt_km": 128.19158186141794,
        "timestamp": "2025-12-07T16:44:02.707471+00:00",
        "meta_object_name": "CZ-2F R/B",
        "meta_object_id": "2025-272B",
        "meta_epoch": "2025-12-07T13:00:15.028704",
        "meta_mean_motion": 16.47453798,
        "meta_eccentricity": 0.002214,
        "meta_inclination": 41.4535,
        "meta_ra_of_asc_node": 41.9834,
        "meta_arg_of_pericenter": 229.6731,
        "meta_mean_anomaly": 130.2205,
        "meta_ephemeris_type": 0,
        "meta_classification_type": "U",
        "meta_norad_cat_id": 66646,
        "meta_element_set_no": 999,
        "meta_rev_at_epoch": 200,
        "meta_bstar": 0.00015075,
        "meta_mean_motion_dot": 0.11903621,
        "meta_mean_motion_ddot": 8.0762e-06,
        "tle_line1": "1 66646U 25272B   25341.54184061  .11903621  80762-5  15075-3 0  9992",
        "tle_line2": "2 66646  41.4535  41.9834 0022140 229.6731 130.2205 16.47453798  2009"
      },
      "geometry": {
        "type": "Point",
        "coordinates": [
          -120.67256979410736,
          -15.583184022476212
        ]
      }
    },
    {
      "type": "Feature",
      "properties": {
        "norad_id": 66664,
        "name": "SOYUZ-MS 28",
        "group": "stations",
        "lat": -28.263385296175326,
        "lon": 142.23277560158564,
        "alt_km": 422.72178844804057,
        "timestamp": "2025-12-07T16:44:02.707483+00:00",
        "meta_object_name": "SOYUZ-MS 28",
        "meta_object_id": "2025-275A",
        "meta_epoch": "2025-12-06T20:46:13.238400",
        "meta_mean_motion": 15.49374779,
        "meta_eccentricity": 0.00034973,
        "meta_inclination": 51.6304,
        "meta_ra_of_asc_node": 171.5636,
        "meta_arg_of_pericenter": 213.1314,
        "meta_mean_anomaly": 146.9456,
        "meta_ephemeris_type": 0,
        "meta_classification_type": "U",
        "meta_norad_cat_id": 66664,
        "meta_element_set_no": 999,
        "meta_rev_at_epoch": 128,
        "meta_bstar": 0.00025393652,
        "meta_mean_motion_dot": 0.0001375,
        "meta_mean_motion_ddot": 0,
        "tle_line1": "1 66664U 25275A   25340.86543100  .00013750  00000+0  25394-3 0  9991",
        "tle_line2": "2 66664  51.6304 171.5636 0003497 213.1314 146.9456 15.49374779  1288"
      },
      "geometry": {
        "type": "Point",
        "coordinates": [
          142.23277560158564,
          -28.263385296175326
        ]
      }
    },
    {
      "type": "Feature",
      "properties": {
        "norad_id": 66906,
        "name": "1998-067XS",
        "group": "stations",
        "lat": -18.644638044181118,
        "lon": 151.91152984297148,
        "alt_km": 421.5033635429827,
        "timestamp": "2025-12-07T16:44:02.707494+00:00",
        "meta_object_name": "1998-067XS",
        "meta_object_id": "1998-067XS",
        "meta_epoch": "2025-12-06T22:16:16.867200",
        "meta_mean_motion": 15.50144102,
        "meta_eccentricity": 0.00041468,
        "meta_inclination": 51.6299,
        "meta_ra_of_asc_node": 171.2315,
        "meta_arg_of_pericenter": 177.6061,
        "meta_mean_anomaly": 182.4948,
        "meta_ephemeris_type": 0,
        "meta_classification_type": "U",
        "meta_norad_cat_id": 66906,
        "meta_element_set_no": 999,
        "meta_rev_at_epoch": 71,
        "meta_bstar": 0.00061899955,
        "meta_mean_motion_dot": 0.00035216,
        "meta_mean_motion_ddot": 0,
        "tle_line1": "1 66906U 98067XS  25340.92797300  .00035216  00000+0  61900-3 0  9993",
        "tle_line2": "2 66906  51.6299 171.2315 0004146 177.6061 182.4948 15.50144102   711"
      },
      "geometry": {
        "type": "Point",
        "coordinates": [
          151.91152984297148,
          -18.644638044181118
        ]
      }
    }
  ]
}